     2.11           G: GLONASS NAV DATA                     RINEX VERSION / TYPE
teqc  2019Feb25     CORS-ADM Account    20240109 01:45:14UTCPGM / RUN BY / DATE
Linux 2.4.21-27.ELsmp|Opteron|gcc|Linux 64|=+               COMMENT
     2.10           G: GLONASS NAV DATA                     COMMENT
gvacn.e(1510.26)                        2024-01-09T01:35 UTCCOMMENT
This file contains the validated broadcast navigation       COMMENT
messages from the following files:                          COMMENT
abmf0070.24g, abpo0070.24g, albh0070.24g, areq0070.24g,     COMMENT
badg0070.24g, bake0070.24g, bogt0070.24g, brew0070.24g,     COMMENT
cas10070.24g, cedu0070.24g, chur0070.24g, ckis0070.24g,     COMMENT
cro10070.24g, daej0070.24g, dgar0070.24g, drao0070.24g,     COMMENT
dubo0070.24g, fair0070.24g, falk0070.24g, flin0070.24g,     COMMENT
glps0070.24g, glsv0070.24g, gode0070.24g, godz0070.24g,     COMMENT
gold0070.24g, harb0070.24g, hlfx0070.24g, hob20070.24g,     COMMENT
hofn0070.24g, holb0070.24g, hrao0070.24g, iisc0070.24g,     COMMENT
jplm0070.24g, kiri0070.24g, kiru0070.24g, kokb0070.24g,     COMMENT
kokv0070.24g, kour0070.24g, lmmf0070.24g, mal20070.24g,     COMMENT
mana0070.24g, mas10070.24g, mat10070.24g, mate0070.24g,     COMMENT
maw10070.24g, mbar0070.24g, mcm40070.24g, mdo10070.24g,     COMMENT
mkea0070.24g, mobs0070.24g, mtka0070.24g, nano0070.24g,     COMMENT
naur0070.24g, nico0070.24g, nium0070.24g, nklg0070.24g,     COMMENT
nnor0070.24g, not10070.24g, pert0070.24g, pie10070.24g,     COMMENT
pimo0070.24g, pohn0070.24g, pol20070.24g, polv0070.24g,     COMMENT
reun0070.24g, sant0070.24g, sch20070.24g, stjo0070.24g,     COMMENT
suth0070.24g, sydn0070.24g, tid10070.24g, tow20070.24g,     COMMENT
twtf0070.24g, unbj0070.24g, vill0070.24g, whit0070.24g,     COMMENT
will0070.24g, wsrt0070.24g, yar20070.24g, yarr0070.24g,     COMMENT
yell0070.24g                                                COMMENT
  2024     1     7   -3.725290298462D-09                    CORR TO SYSTEM TIME
                                                            END OF HEADER
14 24  1  7 23 45  0.0 2.589728683233D-05 0.000000000000D+00 8.460000000000D+04
   -1.084826416016D+04-1.027193069458D-01-0.000000000000D+00 0.000000000000D+00
    2.286114208984D+04 4.568424224854D-01 9.313225746155D-10-7.000000000000D+00
   -3.279612304688D+03 3.517641067505D+00-2.793967723846D-09 0.000000000000D+00
15 24  1  7 23 45  0.0 8.329842239618D-05-0.000000000000D+00 8.460000000000D+04
    8.115478515625D+01-1.156929969788D+00-3.725290298462D-09 0.000000000000D+00
    1.776377539062D+04 2.225788116455D+00 9.313225746155D-10 0.000000000000D+00
   -1.829507958984D+04 2.154316902161D+00 0.000000000000D+00 0.000000000000D+00
16 24  1  7 23 45  0.0 2.226978540421D-05 0.000000000000D+00 8.460000000000D+04
    1.110270410156D+04-1.540575981140D+00-1.862645149231D-09 0.000000000000D+00
    2.229705566406D+03 2.725009918213D+00 0.000000000000D+00-1.000000000000D+00
   -2.285183984375D+04-4.853506088257D-01 1.862645149231D-09 0.000000000000D+00
17 24  1  7 23 45  0.0 5.039013922215D-05 2.728484105319D-12 8.460000000000D+04
    1.123599121094D+03-1.096320152283D+00-3.725290298462D-09 0.000000000000D+00
    1.823717236328D+04-2.184136390686D+00 0.000000000000D+00 4.000000000000D+00
   -1.776657470703D+04-2.312569618225D+00 0.000000000000D+00 0.000000000000D+00
18 24  1  7 23 45  0.0 1.209657639265D-04 1.818989403546D-12 8.460000000000D+04
    1.107835791016D+04-1.284599304199D-02-1.862645149231D-09 0.000000000000D+00
    2.277474658203D+04-5.060768127441D-01-9.313225746155D-10-3.000000000000D+00
   -3.247274902344D+03-3.564276695251D+00 0.000000000000D+00 0.000000000000D+00
19 24  1  7 23 45  0.0-2.612043172121D-04-9.094947017729D-13 8.460000000000D+04
    1.481648193359D+04 9.281854629517D-01 9.313225746155D-10 0.000000000000D+00
    1.722951757812D+04 1.308310508728D+00-1.862645149231D-09 3.000000000000D+00
    1.159413867188D+04-3.131989479065D+00-0.000000000000D+00 0.000000000000D+00
20 24  1  7 23 45  0.0-1.064371317625D-04-0.000000000000D+00 8.460000000000D+04
    1.057639599609D+04 1.489195823669D+00 3.725290298462D-09 0.000000000000D+00
   -2.000210449219D+03 2.798433303833D+00-1.862645149231D-09 2.000000000000D+00
    2.314343164062D+04-4.350452423096D-01-0.000000000000D+00 0.000000000000D+00
21 24  1  7 23 45  0.0-6.715860217810D-05-2.728484105319D-12 8.460000000000D+04
   -1.356759765625D+03 1.044945716858D+00 2.793967723846D-09 0.000000000000D+00
   -1.851905859375D+04 2.163744926453D+00-0.000000000000D+00 4.000000000000D+00
    1.750727490234D+04 2.368372917175D+00-0.000000000000D+00 0.000000000000D+00
22 24  1  7 23 45  0.0 1.020822674036D-04 1.818989403546D-12 8.460000000000D+04
   -1.080994384766D+04-9.045600891113D-03 9.313225746155D-10 0.000000000000D+00
   -2.298807617188D+04 3.499212265015D-01 9.313225746155D-10-3.000000000000D+00
    2.264887207031D+03 3.558212280273D+00 0.000000000000D+00 0.000000000000D+00
23 24  1  7 23 45  0.0-1.081209629774D-04-9.094947017729D-13 8.460000000000D+04
   -1.531761669922D+04-1.138606071472D+00-9.313225746155D-10 0.000000000000D+00
   -1.411037353516D+04-1.678419113159D+00 1.862645149231D-09 3.000000000000D+00
   -1.472481201172D+04 2.793305397034D+00 0.000000000000D+00 0.000000000000D+00
24 24  1  7 23 45  0.0-3.901310265060D-05-1.818989403550D-12 8.460000000000D+04
   -1.058338281250D+04-1.577897071840D+00-3.725290298460D-09 0.000000000000D+00
    3.256856933590D+03-2.726743698120D+00 2.793967723850D-09 2.000000000000D+00
   -2.295645898440D+04 3.391046524050D-01 0.000000000000D+00 0.000000000000D+00
25 24  1  7 23 45  0.0 2.215802669525D-05 2.546585164964D-11 8.460000000000D+04
   -2.111259765625D+02 1.013045310974D+00 2.793967723846D-09 6.000000000000D+00
   -1.846550683594D+04 2.188923835754D+00-0.000000000000D+00-5.000000000000D+00
    1.761579101562D+04 2.306089401245D+00 0.000000000000D+00 0.000000000000D+00
26 24  1  7 23 45  0.0-0.000000000000D+00-1.818989403546D-12 8.460000000000D+04
   -9.704615722656D+03 2.933143615723D+00 1.862645149231D-09 5.000000000000D+00
   -9.941444824219D+03 4.320621490479D-02 1.862645149231D-09-7.000000000000D+00
   -2.137620605469D+04-1.348697662354D+00 9.313225746155D-10 0.000000000000D+00
 3 24  1  8  0 15  0.0 9.236764162779D-05 0.000000000000D+00 0.000000000000D+00
   -1.338997167969D+04-2.539422988892D+00 0.000000000000D+00 0.000000000000D+00
    1.076543847656D+04 4.480304718018D-01 0.000000000000D+00 5.000000000000D+00
    1.887338720703D+04-2.068094253540D+00-3.725290298462D-09 0.000000000000D+00
 4 24  1  8  0 15  0.0 2.185450866818D-04 1.818989403546D-12 0.000000000000D+00
    4.696705078125D+03-3.116705894470D+00 9.313225746155D-10 0.000000000000D+00
    1.012656152344D+04 3.678302764893D-01-1.862645149231D-09 6.000000000000D+00
    2.296629003906D+04 4.739923477173D-01-1.862645149231D-09 0.000000000000D+00
 5 24  1  8  0 15  0.0 1.250281929970D-04 9.094947017729D-13 0.000000000000D+00
    2.041007421875D+04-2.015730857849D+00 1.862645149231D-09 0.000000000000D+00
    4.328466796875D+03 9.238815307617D-02-2.793967723846D-09 1.000000000000D+00
    1.470767431641D+04 2.769380569458D+00 9.313225746155D-10 0.000000000000D+00
 6 24  1  8  0 15  0.0-1.453720033169D-04-9.094947017729D-13 3.000000000000D+01
    2.409918554688D+04 6.833324432373D-01 1.862645149231D-09 0.000000000000D+00
   -6.552527343750D+03-2.750463485718D-01-1.862645149231D-09-4.000000000000D+00
   -5.266476074219D+03 3.473216056824D+00 2.793967723846D-09 0.000000000000D+00
18 24  1  8  0 15  0.0 1.209694892168D-04 1.818989403546D-12 0.000000000000D+00
    1.054758251953D+04-6.031475067139D-01-2.793967723846D-09 0.000000000000D+00
    2.123506982422D+04-1.170269012451D+00 0.000000000000D+00-3.000000000000D+00
   -9.455063476562D+03-3.288547515869D+00 0.000000000000D+00 0.000000000000D+00
19 24  1  8  0 15  0.0-2.612071111798D-04-9.094947017729D-13 0.000000000000D+00
    1.626661230469D+04 6.387901306152D-01 0.000000000000D+00 0.000000000000D+00
    1.884095996094D+04 4.857940673828D-01-1.862645149231D-09 3.000000000000D+00
    5.581242187500D+03-3.505644798279D+00 0.000000000000D+00 0.000000000000D+00
20 24  1  8  0 15  0.0-1.064371317625D-04 0.000000000000D+00 0.000000000000D+00
    1.353969824219D+04 1.767243385315D+00 2.793967723846D-09 0.000000000000D+00
    2.670410644531D+03 2.352770805359D+00-2.793967723846D-09 2.000000000000D+00
    2.147779443359D+04-1.403581619263D+00 0.000000000000D+00 0.000000000000D+00
